ONEWEB-0589             
1 54655U 22166P   24175.16045149  .00000132  00000+0  28750-3 0  9991
2 54655  87.9284  28.1169 0001798 116.3654 243.7665 13.21823659 76368
ONEWEB-0590             
1 54656U 22166Q   24175.48688473 -.00000023  00000+0 -86965-4 0  9994
2 54656  87.9289  28.0589 0001686  81.3710 278.7615 13.21828083 76380
ONEWEB-0591             
1 54657U 22166R   24175.49951370 -.00000024  00000+0 -89398-4 0  9999
2 54657  87.9282  28.0526 0001770  87.9406 272.1931 13.21827371 76415
ONEWEB-0592             
1 54658U 22166S   24174.66999722  .00000090  00000+0  18578-3 0  9993
2 54658  87.9280  28.1827 0001663  92.5044 267.6280 13.21828244 75729
ONEWEB-0593             
1 54659U 22166T   24174.61796196  .00000083  00000+0  16890-3 0  9996
2 54659  87.9281  28.2186 0001743  92.8746 267.2587 13.21827910 75827
ONEWEB-0594             
1 54660U 22166U   24175.54525083  .00000063  00000+0  12072-3 0  9992
2 54660  87.9287  28.0343 0002010  86.3739 273.7624 13.21827164 76428
ONEWEB-0595             
1 54661U 22166V   24175.52317642  .00000014  00000+0  25944-5 0  9991
2 54661  87.9283  28.0256 0001808  75.4695 284.6640 13.21825567 76404
ONEWEB-0596             
1 54662U 22166W   24174.66369314 -.00000015  00000+0 -66611-4 0  9997
2 54662  87.9287  28.2025 0001556  92.2605 267.8707 13.21828022 75824
ONEWEB-0597             
1 54663U 22166X   24175.55313360  .00000051  00000+0  91959-4 0  9998
2 54663  87.9287  28.0271 0001931  97.8215 262.3138 13.21826742 76412
ONEWEB-0600             
1 54664U 22166Y   24175.15730165  .00000082  00000+0  16792-3 0  9996
2 54664  87.9280  28.1460 0001936  91.3723 268.7633 13.21827719 76331
ONEWEB-0601             
1 54665U 22166Z   24175.52790142  .00000014  00000+0  14834-5 0  9991
2 54665  87.9287  28.0370 0001667 102.2195 257.9126 13.21826931 76561
ONEWEB-0602             
1 54666U 22166AA  24174.66055618  .00000018  00000+0  11978-4 0  9997
2 54666  87.9288  28.2134 0001834  97.1876 262.9466 13.21826862 75832
ONEWEB-0603             
1 54667U 22166AB  24175.49794353  .00000006  00000+0 -16447-4 0  9990
2 54667  87.9290  28.0479 0001856  99.5192 260.6152 13.21826443 76335
ONEWEB-0604             
1 54668U 22166AC  24175.48532102  .00000062  00000+0  11902-3 0  9993
2 54668  87.9282  28.0297 0002142  87.7818 272.3562 13.21824706 76300
ONEWEB-0605             
1 54669U 22166AD  24175.55471425  .00000043  00000+0  72906-4 0  9993
2 54669  87.9282  28.0490 0001528 106.8913 253.2388 13.21826858 76384
ONEWEB-0606             
1 54670U 22166AE  24174.59273839  .00000031  00000+0  43919-4 0  9996
2 54670  87.9288  28.2309 0001862  79.7837 280.3507 13.21827261 76302
ONEWEB-0607             
1 54671U 22166AF  24175.54368165  .00000062  00000+0  11798-3 0  9993
2 54671  87.9284  28.0192 0001886  96.5205 263.6143 13.21826537 76405
ONEWEB-0608             
1 54672U 22166AG  24175.54998798  .00000087  00000+0  17831-3 0  9996
2 54672  87.9289  28.0397 0001689 105.4534 254.6786 13.21826998 76419
ONEWEB-0610             
1 54673U 22166AH  24175.15257993  .00000075  00000+0  15013-3 0  9996
2 54673  87.9284  28.1135 0001654 100.1536 259.9785 13.21827234 76277
ONEWEB-0611             
1 54674U 22166AJ  24174.61639398  .00000091  00000+0  18980-3 0  9994
2 54674  87.9284  28.2192 0002113  75.8780 284.2589 13.21827468 76195
ONEWEB-0612             
1 54675U 22166AK  24175.15888792  .00000088  00000+0  18193-3 0  9991
2 54675  87.9281  28.0939 0001705  93.8912 266.2416 13.21826864 76258
ONEWEB-0615             
1 54676U 22166AL  24175.51843182  .00000038  00000+0  61610-4 0  9994
2 54676  87.9282  28.0469 0001996  92.5190 267.6173 13.21827908 76316
ONEWEB-0655             
1 54677U 22166AM  24175.49163596  .00000029  00000+0  37539-4 0  9999
2 54677  87.9284  28.0543 0002261  95.3079 264.8313 13.21824907 76305
ONEWEB-0659             
1 54678U 22166AN  24175.50896904  .00000056  00000+0  10359-3 0  9998
2 54678  87.9282  28.0573 0001822  79.5893 280.5446 13.21823808 76397
ONEWEB-0685             
1 54679U 22166AP  24175.51056534  .00000001  00000+0 -29166-4 0  9995
2 54679  87.9283  28.0467 0001913  92.6484 267.4869 13.21827289 76282
ONEWEB-0712             
1 54680U 22166AQ  24175.52385639  .00000044  00000+0  81851-4 0  9994
2 54680  87.9097  12.8500 0002143  79.0993 281.0379 13.16593710 77299
ONEWEB-0714             
1 54681U 22166AR  24175.51686615  .00000014  00000+0  23066-5 0  9994
2 54681  87.9284  28.0316 0001978  93.7849 266.3511 13.21825170 76400
ONEWEB-0532             
1 55140U 23004A   24174.90559802 -.00000009  00000+0 -55686-4 0  9994
2 55140  87.9168 150.0479 0001484  88.7400 271.3901 13.17596823 72205
ONEWEB-0533             
1 55141U 23004B   24174.89939875  .00000096  00000+0  23114-3 0  9999
2 55141  87.8949 134.8583 0002176  87.7153 272.4224 13.12444573 73054
ONEWEB-0541             
1 55142U 23004C   24175.50744675  .00000492  00000+0  13529-2 0  9999
2 55142  87.8960 165.0640 0001990  86.4037 273.7319 13.11415824 71107
ONEWEB-0543             
1 55143U 23004D   24174.92304847  .00000013  00000+0  33030-6 0  9990
2 55143  87.9143 119.7294 0002433  80.9471 279.1936 13.18684866 74241
ONEWEB-0544             
1 55144U 23004E   24174.91672566 -.00000033  00000+0 -11630-3 0  9999
2 55144  87.9145 119.7156 0001989  77.9957 282.1398 13.18684557 74244
ONEWEB-0560             
1 55145U 23004F   24174.91038783  .00000059  00000+0  11722-3 0  9995
2 55145  87.9152 119.6684 0002436  73.1285 287.0114 13.18689540 74256
ONEWEB-0565             
1 55146U 23004G   24174.82821004  .00000009  00000+0 -10046-4 0  9997
2 55146  87.9146 119.7625 0001861  61.6306 298.5013 13.18685419 74237
ONEWEB-0567             
1 55147U 23004H   24175.35301877  .00000095  00000+0  20696-3 0  9993
2 55147  87.9146 119.6117 0002146  65.5510 294.5846 13.18686774 74303
ONEWEB-0569             
1 55148U 23004J   24174.86296528  .00000340  00000+0  89525-3 0  9994
2 55148  87.8934 104.3734 0002602  53.9395 306.1975 13.13471447 75097
ONEWEB-0570             
1 55149U 23004K   24174.88511798  .00000054  00000+0  10339-3 0  9995
2 55149  87.9148 119.7016 0001286  78.9148 281.2129 13.18686402 74232
ONEWEB-0571             
1 55150U 23004L   24174.87877351  .00000007  00000+0 -14142-4 0  9992
2 55150  87.9149 119.7087 0001901  48.6563 311.4733 13.18687892 74244
ONEWEB-0572             
1 55151U 23004M   24174.93653746  .00000048  00000+0  89876-4 0  9990
2 55151  87.9170 150.0489 0001869  80.9855 279.1488 13.17777059 72103
ONEWEB-0573             
1 55152U 23004N   24175.40359894  .00000042  00000+0  74500-4 0  9993
2 55152  87.9143 119.6250 0001586  51.8944 308.2331 13.18685569 74303
ONEWEB-0588             
1 55153U 23004P   24174.86614437  .00000055  00000+0  10776-3 0  9998
2 55153  87.9148 119.6984 0001505  76.0122 284.1177 13.18685476 74230
ONEWEB-0598             
1 55154U 23004Q   24175.48539540  .00000222  00000+0  59110-3 0  9990
2 55154  87.8962 165.1081 0001987  64.3560 295.7773 13.11419352 71056
ONEWEB-0599             
1 55155U 23004R   24174.89757515  .00000032  00000+0  49696-4 0  9997
2 55155  87.9174 150.0410 0002203  81.2761 278.8620 13.17630370 72106
ONEWEB-0614             
1 55156U 23004S   24174.94623117  .00000066  00000+0  15149-3 0  9996
2 55156  87.8963 165.2187 0001854  98.6657 261.4681 13.11419085 70912
ONEWEB-0616             
1 55157U 23004T   24174.93974283  .00000052  00000+0  10090-3 0  9994
2 55157  87.9171 150.0403 0003301  82.0572 278.0934 13.17762051 72322
ONEWEB-0617             
1 55158U 23004U   24175.46843078 -.00000418  00000+0 -12138-2 0  9993
2 55158  87.8957 165.1102 0001591  93.4672 266.6638 13.11418326 71019
ONEWEB-0618             
1 55159U 23004V   24175.21051048  .00000226  00000+0  85770-4 0  9994
2 55159  86.9065  91.2005 0011046 265.9236  94.0694 14.26794700 76200
ONEWEB-0619             
1 55160U 23004W   24174.89598267 -.00000007  00000+0 -51347-4 0  9990
2 55160  87.9170 150.0258 0002571  93.7011 266.4414 13.17636892 72213
ONEWEB-0620             
1 55161U 23004X   24175.46334814 -.00000565  00000+0 -16290-2 0  9996
2 55161  87.8960 165.1217 0001546  85.2049 274.9256 13.11416252 70979
ONEWEB-0621             
1 55162U 23004Y   24175.49048332  .00000426  00000+0  11658-2 0  9994
2 55162  87.8958 165.0849 0002144  95.9130 264.2242 13.11417921 70983
ONEWEB-0622             
1 55163U 23004Z   24175.49557277  .00000037  00000+0  68308-4 0  9992
2 55163  87.8955 165.0994 0001128 105.4901 254.6351 13.11416096 70959
ONEWEB-0623             
1 55164U 23004AA  24174.89114022  .00000003  00000+0 -25121-4 0  9993
2 55164  87.9171 150.0804 0001597 108.7536 251.3769 13.17654070 72204
ONEWEB-0624             
1 55165U 23004AB  24174.94171042  .00000015  00000+0  66322-5 0  9996
2 55165  87.8951 134.8579 0001961  87.8598 272.2755 13.12442837 73051
ONEWEB-0625             
1 55166U 23004AC  24175.48733224  .00000018  00000+0  12657-4 0  9997
2 55166  87.9172 149.9605 0002382  88.8584 271.2820 13.17702309 72272
ONEWEB-0626             
1 55167U 23004AD  24174.94617374  .00000036  00000+0  59591-4 0  9993
2 55167  87.9169 150.0685 0001754  70.7285 289.4036 13.17737299 72209
ONEWEB-0627             
1 55168U 23004AE  24174.93492330  .00000942  00000+0  23890-2 0  9993
2 55168  87.9171 150.0725 0001435  96.0381 264.0914 13.17777178 72206
ONEWEB-0628             
1 55169U 23004AF  24174.92225163 -.00000297  00000+0 -86050-3 0  9994
2 55169  87.8946 134.8501 0001803 107.7869 252.3456 13.12442473 73033
ONEWEB-0629             
1 55170U 23004AG  24175.38634244  .00000150  00000+0  35364-3 0  9999
2 55170  87.9166 149.9732 0002233  98.4348 261.7037 13.17649723 72264
ONEWEB-0631             
1 55171U 23004AH  24175.39096232  .00000080  00000+0  16991-3 0  9997
2 55171  87.9157 119.5009 0001510  66.8733 293.2558 13.18687143 74280
